ACS3                    
1 59588U 24077B   24262.73078226  .00020762  00000+0  23832-1 0  9991
2 59588  97.4239 309.1901 0043937 214.1612 145.6711 13.69044313 20198
